start=new Date('2022-04-19T00:00:00.000Z').valueOf();
sats=[{"MEAN_ELEMENT_THEORY":"SGP4","OBJECT_ID":"2022-025U","PERIOD":"91.535","REF_FRAME":"TEME","PERIAPSIS":"348.869","TLE_LINE2":"2 51974  53.2148 299.3485 0001453 125.3672  75.1462 15.73169565  3703","RCS_SIZE":"LARGE","FILE":"3407402","MEAN_ANOMALY":"75.1462","INCLINATION":"53.2148","BSTAR":"0.00021236000000","APOAPSIS":"350.825","COUNTRY_CODE":"US","ELEMENT_SET_NO":"999","REV_AT_EPOCH":"370","ARG_OF_PERICENTER":"125.3672","MEAN_MOTION":"15.73169565","MEAN_MOTION_DDOT":"0.0000000000000","CENTER_NAME":"EARTH","EPOCH":"2022-04-18T22:00:00.999936","DECAY_DATE":null,"MEAN_MOTION_DOT":"0.00029248","OBJECT_TYPE":"PAYLOAD","TLE_LINE1":"1 51974U 22025U   22108.91667824  .00029248  00000-0  21236-3 0  9995","LAUNCH_DATE":"2022-03-09","EPHEMERIS_TYPE":"0","SEMIMAJOR_AXIS":"6727.982","TIME_SYSTEM":"UTC","CLASSIFICATION_TYPE":"U","GP_ID":"201583338","OBJECT_NAME":"STARLINK-3672","ECCENTRICITY":"0.00014530","RA_OF_ASC_NODE":"299.3485","NORAD_CAT_ID":"51974","SITE":"AFETR"},{"INCLINATION":"53.2145","BSTAR":"-0.00041443000000","APOAPSIS":"350.350","MEAN_ANOMALY":"111.3898","FILE":"3407402","TLE_LINE2":"2 51975  53.2145 300.0551 0001000 103.4278 111.3898 15.73229223  3706","RCS_SIZE":"LARGE","REF_FRAME":"TEME","PERIAPSIS":"349.004","OBJECT_ID":"2022-025V","PERIOD":"91.531","MEAN_ELEMENT_THEORY":"SGP4","RA_OF_ASC_NODE":"300.0551","NORAD_CAT_ID":"51975","SITE":"AFETR","ECCENTRICITY":"0.00010000","SEMIMAJOR_AXIS":"6727.812","TIME_SYSTEM":"UTC","CLASSIFICATION_TYPE":"U","GP_ID":"201582806","OBJECT_NAME":"STARLINK-3674","LAUNCH_DATE":"2022-03-09","EPHEMERIS_TYPE":"0","MEAN_MOTION_DOT":"-0.00058450","OBJECT_TYPE":"PAYLOAD","TLE_LINE1":"1 51975U 22025V   22108.91667824 -.00058450  00000-0 -41443-3 0  9997","CENTER_NAME":"EARTH","EPOCH":"2022-04-18T22:00:00.999936","DECAY_DATE":null,"MEAN_MOTION":"15.73229223","MEAN_MOTION_DDOT":"0.0000000000000","COUNTRY_CODE":"US","ELEMENT_SET_NO":"999","REV_AT_EPOCH":"370","ARG_OF_PERICENTER":"103.4278"},{"REF_FRAME":"TEME","PERIAPSIS":"416.359","RCS_SIZE":"LARGE","TLE_LINE2":"2 51976  53.2156 301.5533 0001089  88.8902 109.7695 15.49873117  3696","MEAN_ELEMENT_THEORY":"SGP4","OBJECT_ID":"2022-025W","PERIOD":"92.911","BSTAR":"0.00039125000000","APOAPSIS":"417.839","INCLINATION":"53.2156","FILE":"3407402","MEAN_ANOMALY":"109.7695","DECAY_DATE":null,"CENTER_NAME":"EARTH","EPOCH":"2022-04-18T22:00:00.999936","OBJECT_TYPE":"PAYLOAD","TLE_LINE1":"1 51976U 22025W   22108.91667824  .00021807  00000-0  39125-3 0  9996","MEAN_MOTION_DOT":"0.00021807","REV_AT_EPOCH":"369","ARG_OF_PERICENTER":"88.8902","COUNTRY_CODE":"US","ELEMENT_SET_NO":"999","MEAN_MOTION":"15.49873117","MEAN_MOTION_DDOT":"0.0000000000000","ECCENTRICITY":"0.00010890","NORAD_CAT_ID":"51976","SITE":"AFETR","RA_OF_ASC_NODE":"301.5533","LAUNCH_DATE":"2022-03-09","EPHEMERIS_TYPE":"0","GP_ID":"201583428","OBJECT_NAME":"STARLINK-3663","SEMIMAJOR_AXIS":"6795.234","TIME_SYSTEM":"UTC","CLASSIFICATION_TYPE":"U"},{"ECCENTRICITY":"0.00013320","RA_OF_ASC_NODE":"299.3489","SITE":"AFETR","NORAD_CAT_ID":"51977","EPHEMERIS_TYPE":"0","LAUNCH_DATE":"2022-03-09","CLASSIFICATION_TYPE":"U","TIME_SYSTEM":"UTC","SEMIMAJOR_AXIS":"6728.002","OBJECT_NAME":"STARLINK-3660","GP_ID":"201582896","EPOCH":"2022-04-18T22:00:00.999936","CENTER_NAME":"EARTH","DECAY_DATE":null,"MEAN_MOTION_DOT":"0.00066724","TLE_LINE1":"1 51977U 22025X   22108.91667824  .00066724  00000-0  47682-3 0  9991","OBJECT_TYPE":"PAYLOAD","ELEMENT_SET_NO":"999","COUNTRY_CODE":"US","ARG_OF_PERICENTER":"108.9489","REV_AT_EPOCH":"370","MEAN_MOTION_DDOT":"0.0000000000000","MEAN_MOTION":"15.73162516","INCLINATION":"53.2147","APOAPSIS":"350.763","BSTAR":"0.00047682000000","FILE":"3407402","MEAN_ANOMALY":"90.9261","PERIAPSIS":"348.971","REF_FRAME":"TEME","TLE_LINE2":"2 51977  53.2147 299.3489 0001332 108.9489  90.9261 15.73162516  3709","RCS_SIZE":"LARGE","MEAN_ELEMENT_THEORY":"SGP4","PERIOD":"91.535","OBJECT_ID":"2022-025X"},{"SITE":"AFETR","NORAD_CAT_ID":"51978","RA_OF_ASC_NODE":"301.5512","ECCENTRICITY":"0.00012020","OBJECT_NAME":"STARLINK-3666","GP_ID":"201582987","TIME_SYSTEM":"UTC","CLASSIFICATION_TYPE":"U","SEMIMAJOR_AXIS":"6795.894","EPHEMERIS_TYPE":"0","LAUNCH_DATE":"2022-03-09","TLE_LINE1":"1 51978U 22025Y   22108.91667824 -.00278922  00000-0 -51263-2 0  9998","OBJECT_TYPE":"PAYLOAD","MEAN_MOTION_DOT":"-0.00278922","DECAY_DATE":null,"CENTER_NAME":"EARTH","EPOCH":"2022-04-18T22:00:00.999936","MEAN_MOTION_DDOT":"0.0000000000000","MEAN_MOTION":"15.49647476","ARG_OF_PERICENTER":"97.8394","REV_AT_EPOCH":"369","ELEMENT_SET_NO":"999","COUNTRY_CODE":"US","APOAPSIS":"418.575","BSTAR":"-0.00512630000000","INCLINATION":"53.2175","MEAN_ANOMALY":"124.4798","FILE":"3407402","RCS_SIZE":"LARGE","TLE_LINE2":"2 51978  53.2175 301.5512 0001202  97.8394 124.4798 15.49647476  3693","PERIAPSIS":"416.942","REF_FRAME":"TEME","PERIOD":"92.924","OBJECT_ID":"2022-025Y","MEAN_ELEMENT_THEORY":"SGP4"},{"MEAN_MOTION_DOT":"-0.00035287","TLE_LINE1":"1 51979U 22025Z   22108.91667824 -.00035287  00000-0 -61580-3 0  9998","OBJECT_TYPE":"PAYLOAD","EPOCH":"2022-04-18T22:00:00.999936","CENTER_NAME":"EARTH","DECAY_DATE":null,"MEAN_MOTION_DDOT":"0.0000000000000","MEAN_MOTION":"15.49920336","ELEMENT_SET_NO":"999","COUNTRY_CODE":"US","ARG_OF_PERICENTER":"76.6366","REV_AT_EPOCH":"369","RA_OF_ASC_NODE":"301.5572","SITE":"AFETR","NORAD_CAT_ID":"51979","ECCENTRICITY":"0.00012370","CLASSIFICATION_TYPE":"U","TIME_SYSTEM":"UTC","SEMIMAJOR_AXIS":"6795.096","OBJECT_NAME":"STARLINK-3656","GP_ID":"201583159","EPHEMERIS_TYPE":"0","LAUNCH_DATE":"2022-03-09","TLE_LINE2":"2 51979  53.2165 301.5572 0001237  76.6366 113.9445 15.49920336  3692","RCS_SIZE":"LARGE","PERIAPSIS":"416.120","REF_FRAME":"TEME","PERIOD":"92.908","OBJECT_ID":"2022-025Z","MEAN_ELEMENT_THEORY":"SGP4","INCLINATION":"53.2165","APOAPSIS":"417.801","BSTAR":"-0.00061580000000","MEAN_ANOMALY":"113.9445","FILE":"3407402"},{"BSTAR":"-0.00885660000000","APOAPSIS":"417.657","INCLINATION":"53.2174","FILE":"3407402","MEAN_ANOMALY":"141.9790","REF_FRAME":"TEME","PERIAPSIS":"415.708","RCS_SIZE":"LARGE","TLE_LINE2":"2 51980  53.2174 301.5495 0001434  95.4959 141.9790 15.50015568  3692","MEAN_ELEMENT_THEORY":"SGP4","OBJECT_ID":"2022-025AA","PERIOD":"92.902","ECCENTRICITY":"0.00014340","NORAD_CAT_ID":"51980","SITE":"AFETR","RA_OF_ASC_NODE":"301.5495","LAUNCH_DATE":"2022-03-09","EPHEMERIS_TYPE":"0","GP_ID":"201583078","OBJECT_NAME":"STARLINK-3649","SEMIMAJOR_AXIS":"6794.818","CLASSIFICATION_TYPE":"U","TIME_SYSTEM":"UTC","DECAY_DATE":null,"CENTER_NAME":"EARTH","EPOCH":"2022-04-18T22:00:00.999936","OBJECT_TYPE":"PAYLOAD","TLE_LINE1":"1 51980U 22025AA  22108.91667824 -.00475943  00000-0 -88566-2 0  9999","MEAN_MOTION_DOT":"-0.00475943","REV_AT_EPOCH":"369","ARG_OF_PERICENTER":"95.4959","COUNTRY_CODE":"US","ELEMENT_SET_NO":"999","MEAN_MOTION":"15.50015568","MEAN_MOTION_DDOT":"0.0000000000000"},{"NORAD_CAT_ID":"51981","SITE":"AFETR","RA_OF_ASC_NODE":"301.5534","ECCENTRICITY":"0.00013360","GP_ID":"201583249","OBJECT_NAME":"STARLINK-3635","SEMIMAJOR_AXIS":"6795.755","TIME_SYSTEM":"UTC","CLASSIFICATION_TYPE":"U","LAUNCH_DATE":"2022-03-09","EPHEMERIS_TYPE":"0","OBJECT_TYPE":"PAYLOAD","TLE_LINE1":"1 51981U 22025AB  22108.91667824 -.00683970  00000-0 -13222-1 0  9997","MEAN_MOTION_DOT":"-0.00683970","DECAY_DATE":null,"CENTER_NAME":"EARTH","EPOCH":"2022-04-18T22:00:00.999936","MEAN_MOTION":"15.49694939","MEAN_MOTION_DDOT":"0.0000000000000","REV_AT_EPOCH":"369","ARG_OF_PERICENTER":"100.9518","COUNTRY_CODE":"US","ELEMENT_SET_NO":"999","BSTAR":"-0.01322200000000","APOAPSIS":"418.528","INCLINATION":"53.2174","MEAN_ANOMALY":"105.4650","FILE":"3407402","RCS_SIZE":"LARGE","TLE_LINE2":"2 51981  53.2174 301.5534 0001336 100.9518 105.4650 15.49694939  3694","REF_FRAME":"TEME","PERIAPSIS":"416.712","OBJECT_ID":"2022-025AB","PERIOD":"92.922","MEAN_ELEMENT_THEORY":"SGP4"},{"BSTAR":"-0.00682800000000","APOAPSIS":"417.570","INCLINATION":"53.2167","MEAN_ANOMALY":"165.9650","FILE":"3407402","RCS_SIZE":"LARGE","TLE_LINE2":"2 51982  53.2167 301.5475 0001301  79.3518 165.9650 15.50014479  3690","REF_FRAME":"TEME","PERIAPSIS":"415.802","OBJECT_ID":"2022-025AC","PERIOD":"92.902","MEAN_ELEMENT_THEORY":"SGP4","NORAD_CAT_ID":"51982","SITE":"AFETR","RA_OF_ASC_NODE":"301.5475","ECCENTRICITY":"0.00013010","GP_ID":"201583339","OBJECT_NAME":"STARLINK-3650","SEMIMAJOR_AXIS":"6794.821","CLASSIFICATION_TYPE":"U","TIME_SYSTEM":"UTC","LAUNCH_DATE":"2022-03-09","EPHEMERIS_TYPE":"0","OBJECT_TYPE":"PAYLOAD","TLE_LINE1":"1 51982U 22025AC  22108.91667824 -.00371848  00000-0 -68280-2 0  9991","MEAN_MOTION_DOT":"-0.00371848","DECAY_DATE":null,"CENTER_NAME":"EARTH","EPOCH":"2022-04-18T22:00:00.999936","MEAN_MOTION":"15.50014479","MEAN_MOTION_DDOT":"0.0000000000000","REV_AT_EPOCH":"369","ARG_OF_PERICENTER":"79.3518","COUNTRY_CODE":"US","ELEMENT_SET_NO":"999"},{"RA_OF_ASC_NODE":"301.5518","SITE":"AFETR","NORAD_CAT_ID":"51983","ECCENTRICITY":"0.00012390","CLASSIFICATION_TYPE":"U","TIME_SYSTEM":"UTC","SEMIMAJOR_AXIS":"6795.622","OBJECT_NAME":"STARLINK-3655","GP_ID":"201582807","EPHEMERIS_TYPE":"0","LAUNCH_DATE":"2022-03-09","MEAN_MOTION_DOT":"-0.00579184","TLE_LINE1":"1 51983U 22025AD  22108.91667824 -.00579184  00000-0 -11029-1 0  9993","OBJECT_TYPE":"PAYLOAD","CENTER_NAME":"EARTH","EPOCH":"2022-04-18T22:00:00.999936","DECAY_DATE":null,"MEAN_MOTION_DDOT":"0.0000000000000","MEAN_MOTION":"15.49740297","ELEMENT_SET_NO":"999","COUNTRY_CODE":"US","ARG_OF_PERICENTER":"95.3465","REV_AT_EPOCH":"369","INCLINATION":"53.2173","APOAPSIS":"418.329","BSTAR":"-0.01102900000000","MEAN_ANOMALY":"119.2031","FILE":"3407402","TLE_LINE2":"2 51983  53.2173 301.5518 0001239  95.3465 119.2031 15.49740297  3692","RCS_SIZE":"LARGE","PERIAPSIS":"416.645","REF_FRAME":"TEME","PERIOD":"92.919","OBJECT_ID":"2022-025AD","MEAN_ELEMENT_THEORY":"SGP4"}];
